{"fetched_at":"2026-07-08T07:03:57.858Z","source":"https://celestrak.org/NORAD/elements/gp.php?NAME=HAWK&FORMAT=JSON","constellation":"hawkeye-360","records":[{"OBJECT_NAME":"HAWK-12A","OBJECT_ID":"2025-138C","EPOCH":"2026-07-07T19:15:42.244128","CLASSIFICATION_TYPE":"U","MEAN_MOTION":15.1836895,"ECCENTRICITY":0.0015552,"INCLINATION":97.4412,"RA_OF_ASC_NODE":191.2373,"ARG_OF_PERICENTER":69.9197,"MEAN_ANOMALY":290.371,"EPHEMERIS_TYPE":0,"NORAD_CAT_ID":64623,"ELEMENT_SET_NO":999,"REV_AT_EPOCH":5699,"BSTAR":0.00014566,"MEAN_MOTION_DOT":0.00002933,"MEAN_MOTION_DDOT":0},{"OBJECT_NAME":"HAWK-13A","OBJECT_ID":"2026-004AF","EPOCH":"2026-07-07T09:57:47.924928","CLASSIFICATION_TYPE":"U","MEAN_MOTION":15.19316377,"ECCENTRICITY":0.00036639,"INCLINATION":97.4444,"RA_OF_ASC_NODE":186.9974,"ARG_OF_PERICENTER":256.9886,"MEAN_ANOMALY":103.094,"EPHEMERIS_TYPE":0,"NORAD_CAT_ID":67392,"ELEMENT_SET_NO":999,"REV_AT_EPOCH":2683,"BSTAR":0.00016552828,"MEAN_MOTION_DOT":0.00003427,"MEAN_MOTION_DDOT":0},{"OBJECT_NAME":"HAWK-13C","OBJECT_ID":"2026-004AG","EPOCH":"2026-07-06T22:53:42.238176","CLASSIFICATION_TYPE":"U","MEAN_MOTION":15.19313553,"ECCENTRICITY":0.000353,"INCLINATION":97.459,"RA_OF_ASC_NODE":186.9513,"ARG_OF_PERICENTER":264.1663,"MEAN_ANOMALY":95.9169,"EPHEMERIS_TYPE":0,"NORAD_CAT_ID":67393,"ELEMENT_SET_NO":999,"REV_AT_EPOCH":2676,"BSTAR":0.00017277852,"MEAN_MOTION_DOT":0.0000358,"MEAN_MOTION_DDOT":0},{"OBJECT_NAME":"HAWK-13B","OBJECT_ID":"2026-004AK","EPOCH":"2026-07-06T22:53:34.191744","CLASSIFICATION_TYPE":"U","MEAN_MOTION":15.19312732,"ECCENTRICITY":0.00048044,"INCLINATION":97.453,"RA_OF_ASC_NODE":186.7808,"ARG_OF_PERICENTER":262.552,"MEAN_ANOMALY":97.5169,"EPHEMERIS_TYPE":0,"NORAD_CAT_ID":67396,"ELEMENT_SET_NO":999,"REV_AT_EPOCH":2676,"BSTAR":0.0001695606,"MEAN_MOTION_DOT":0.00003512,"MEAN_MOTION_DDOT":0},{"OBJECT_NAME":"HAWK-14B","OBJECT_ID":"2026-067W","EPOCH":"2026-07-07T18:39:52.080768","CLASSIFICATION_TYPE":"U","MEAN_MOTION":15.18392279,"ECCENTRICITY":0.0002395,"INCLINATION":97.4555,"RA_OF_ASC_NODE":146.9327,"ARG_OF_PERICENTER":21.3783,"MEAN_ANOMALY":338.755,"EPHEMERIS_TYPE":0,"NORAD_CAT_ID":68436,"ELEMENT_SET_NO":999,"REV_AT_EPOCH":1506,"BSTAR":0.00015218,"MEAN_MOTION_DOT":0.00003061,"MEAN_MOTION_DDOT":0},{"OBJECT_NAME":"HAWK-14C","OBJECT_ID":"2026-067AB","EPOCH":"2026-07-07T18:40:01.094016","CLASSIFICATION_TYPE":"U","MEAN_MOTION":15.18394587,"ECCENTRICITY":0.0003382,"INCLINATION":97.4492,"RA_OF_ASC_NODE":146.8189,"ARG_OF_PERICENTER":41.7417,"MEAN_ANOMALY":318.4075,"EPHEMERIS_TYPE":0,"NORAD_CAT_ID":68441,"ELEMENT_SET_NO":999,"REV_AT_EPOCH":1506,"BSTAR":0.00015385,"MEAN_MOTION_DOT":0.00003096,"MEAN_MOTION_DDOT":0},{"OBJECT_NAME":"HAWK-14A","OBJECT_ID":"2026-067AJ","EPOCH":"2026-07-07T18:40:11.895744","CLASSIFICATION_TYPE":"U","MEAN_MOTION":15.18389947,"ECCENTRICITY":0.0004084,"INCLINATION":97.4616,"RA_OF_ASC_NODE":147.0534,"ARG_OF_PERICENTER":35.1829,"MEAN_ANOMALY":324.9674,"EPHEMERIS_TYPE":0,"NORAD_CAT_ID":68448,"ELEMENT_SET_NO":999,"REV_AT_EPOCH":1506,"BSTAR":0.00015222,"MEAN_MOTION_DOT":0.00003062,"MEAN_MOTION_DDOT":0}]}
