HAWK-12A                
1 64623U 25138C   26188.80257227  .00002933  00000+0  14566-3 0  9999
2 64623  97.4412 191.2373 0015552  69.9197 290.3710 15.18368950 56992
HAWK-13A                
1 67392U 26004AF  26188.41513802  .00003427  00000+0  16553-3 0  9996
2 67392  97.4444 186.9974 0003663 256.9886 103.0940 15.19316377 26836
HAWK-13C                
1 67393U 26004AG  26187.95396109  .00003580  00000+0  17278-3 0  9999
2 67393  97.4590 186.9513 0003530 264.1663  95.9169 15.19313553 26762
HAWK-13B                
1 67396U 26004AK  26187.95386796  .00003512  00000+0  16956-3 0  9990
2 67396  97.4530 186.7808 0004804 262.5520  97.5169 15.19312732 26769
HAWK-14B                
1 68436U 26067W   26188.77768612  .00003061  00000+0  15218-3 0  9996
2 68436  97.4555 146.9327 0002395  21.3783 338.7550 15.18392279 15069
HAWK-14C                
1 68441U 26067AB  26188.77779044  .00003096  00000+0  15385-3 0  9996
2 68441  97.4492 146.8189 0003382  41.7417 318.4075 15.18394587 15068
HAWK-14A                
1 68448U 26067AJ  26188.77791546  .00003062  00000+0  15222-3 0  9997
2 68448  97.4616 147.0534 0004084  35.1829 324.9674 15.18389947 15065
